STARLINK-35492          
1 65926U 25225S   25305.58335648 -.01854152  00000+0 -34475-1 0  9992
2 65926  53.1604  43.0875 0001096  77.4388 193.3240 15.51823432  4818
STARLINK-35494          
1 65927U 25225T   25305.58335648 -.01845438  00000+0 -34297-1 0  9992
2 65927  53.1603  43.0785 0001099  60.2989 214.2995 15.51819407  4815
STARLINK-35493          
1 65928U 25225U   25305.58335648 -.01841224  00000+0 -34210-1 0  9997
2 65928  53.1605  43.0704 0001077  68.8936 209.5385 15.51818763  4769
STARLINK-35175          
1 65929U 25225V   25305.58335648 -.01853770  00000+0 -34471-1 0  9996
2 65929  53.1600  43.0668 0001179  72.7890 207.5623 15.51819929  4814
STARLINK-35513          
1 65930U 25225W   25305.58335648 -.01849355  00000+0 -34380-1 0  9991
2 65930  53.1600  43.0742 0001277  63.3657 213.1498 15.51817013  4810
STARLINK-35526          
1 65931U 25225X   25305.58335648 -.01847196  00000+0 -34335-1 0  9993
2 65931  53.1604  43.0619 0001178  71.7130 210.5551 15.51817782  4811
STARLINK-35436          
1 65932U 25225Y   25305.58335648 -.01852784  00000+0 -34447-1 0  9997
2 65932  53.1602  43.0587 0001108  70.6960 213.4856 15.51822807  4810
STARLINK-35192          
1 65933U 25225Z   25305.58335648 -.01840311  00000+0 -34190-1 0  9996
2 65933  53.1603  43.0463 0001023  73.0626 216.8716 15.51819634  4813
STARLINK-33921          
1 65934U 25225AA  25305.58335648 -.01845196  00000+0 -34289-1 0  9992
2 65934  53.1602  43.0545 0001090  79.2199 206.8805 15.51821757  4807
STARLINK-35155          
1 65935U 25225AB  25305.58335648 -.01844519  00000+0 -34277-1 0  9998
2 65935  53.1604  43.0506 0001087  62.1431 225.8727 15.51820068  4801
STARLINK-35161          
1 65936U 25225AC  25305.58335648 -.01845367  00000+0 -34293-1 0  9999
2 65936  53.1601  43.0430 0001040  66.5658 225.2834 15.51821919  4813
STARLINK-35473          
1 65937U 25225AD  25305.58335648 -.01844945  00000+0 -34283-1 0  9990
2 65937  53.1599  43.0395 0001007  74.3425 219.4239 15.51822943  4814
