CCSDS_OMM_VERS = 2.0
CREATION_DATE  = 
ORIGINATOR     = 

OBJECT_NAME    = STARLINK-35492
OBJECT_ID      = 2025-225S
CENTER_NAME    = EARTH
REF_FRAME      = TEME
TIME_SYSTEM    = UTC
MEAN_ELEMENT_THEORY = SGP/SGP4

EPOCH          = 2025-11-01T14:00:01.999872
MEAN_MOTION    = 15.51823432
ECCENTRICITY   = .00010963
INCLINATION    = 53.1604
RA_OF_ASC_NODE = 43.0875
ARG_OF_PERICENTER = 77.4388
MEAN_ANOMALY   = 193.3240

EPHEMERIS_TYPE = 0
CLASSIFICATION_TYPE = U
NORAD_CAT_ID   = 65926
ELEMENT_SET_NO = 999
REV_AT_EPOCH   = 481
BSTAR          = -.34475378E-1
MEAN_MOTION_DOT = -.1854152E-1
MEAN_MOTION_DDOT = 0

CCSDS_OMM_VERS = 2.0
CREATION_DATE  = 
ORIGINATOR     = 

OBJECT_NAME    = STARLINK-35494
OBJECT_ID      = 2025-225T
CENTER_NAME    = EARTH
REF_FRAME      = TEME
TIME_SYSTEM    = UTC
MEAN_ELEMENT_THEORY = SGP/SGP4

EPOCH          = 2025-11-01T14:00:01.999872
MEAN_MOTION    = 15.51819407
ECCENTRICITY   = .0001099
INCLINATION    = 53.1603
RA_OF_ASC_NODE = 43.0785
ARG_OF_PERICENTER = 60.2989
MEAN_ANOMALY   = 214.2995

EPHEMERIS_TYPE = 0
CLASSIFICATION_TYPE = U
NORAD_CAT_ID   = 65927
ELEMENT_SET_NO = 999
REV_AT_EPOCH   = 481
BSTAR          = -.34297073E-1
MEAN_MOTION_DOT = -.1845438E-1
MEAN_MOTION_DDOT = 0

CCSDS_OMM_VERS = 2.0
CREATION_DATE  = 
ORIGINATOR     = 

OBJECT_NAME    = STARLINK-35493
OBJECT_ID      = 2025-225U
CENTER_NAME    = EARTH
REF_FRAME      = TEME
TIME_SYSTEM    = UTC
MEAN_ELEMENT_THEORY = SGP/SGP4

EPOCH          = 2025-11-01T14:00:01.999872
MEAN_MOTION    = 15.51818763
ECCENTRICITY   = .00010774
INCLINATION    = 53.1605
RA_OF_ASC_NODE = 43.0704
ARG_OF_PERICENTER = 68.8936
MEAN_ANOMALY   = 209.5385

EPHEMERIS_TYPE = 0
CLASSIFICATION_TYPE = U
NORAD_CAT_ID   = 65928
ELEMENT_SET_NO = 999
REV_AT_EPOCH   = 476
BSTAR          = -.34209581E-1
MEAN_MOTION_DOT = -.1841224E-1
MEAN_MOTION_DDOT = 0

CCSDS_OMM_VERS = 2.0
CREATION_DATE  = 
ORIGINATOR     = 

OBJECT_NAME    = STARLINK-35175
OBJECT_ID      = 2025-225V
CENTER_NAME    = EARTH
REF_FRAME      = TEME
TIME_SYSTEM    = UTC
MEAN_ELEMENT_THEORY = SGP/SGP4

EPOCH          = 2025-11-01T14:00:01.999872
MEAN_MOTION    = 15.51819929
ECCENTRICITY   = .0001179
INCLINATION    = 53.1600
RA_OF_ASC_NODE = 43.0668
ARG_OF_PERICENTER = 72.7890
MEAN_ANOMALY   = 207.5623

EPHEMERIS_TYPE = 0
CLASSIFICATION_TYPE = U
NORAD_CAT_ID   = 65929
ELEMENT_SET_NO = 999
REV_AT_EPOCH   = 481
BSTAR          = -.34470715E-1
MEAN_MOTION_DOT = -.185377E-1
MEAN_MOTION_DDOT = 0

CCSDS_OMM_VERS = 2.0
CREATION_DATE  = 
ORIGINATOR     = 

OBJECT_NAME    = STARLINK-35513
OBJECT_ID      = 2025-225W
CENTER_NAME    = EARTH
REF_FRAME      = TEME
TIME_SYSTEM    = UTC
MEAN_ELEMENT_THEORY = SGP/SGP4

EPOCH          = 2025-11-01T14:00:01.999872
MEAN_MOTION    = 15.51817013
ECCENTRICITY   = .00012774
INCLINATION    = 53.1600
RA_OF_ASC_NODE = 43.0742
ARG_OF_PERICENTER = 63.3657
MEAN_ANOMALY   = 213.1498

EPHEMERIS_TYPE = 0
CLASSIFICATION_TYPE = U
NORAD_CAT_ID   = 65930
ELEMENT_SET_NO = 999
REV_AT_EPOCH   = 481
BSTAR          = -.34380256E-1
MEAN_MOTION_DOT = -.1849355E-1
MEAN_MOTION_DDOT = 0

CCSDS_OMM_VERS = 2.0
CREATION_DATE  = 
ORIGINATOR     = 

OBJECT_NAME    = STARLINK-35526
OBJECT_ID      = 2025-225X
CENTER_NAME    = EARTH
REF_FRAME      = TEME
TIME_SYSTEM    = UTC
MEAN_ELEMENT_THEORY = SGP/SGP4

EPOCH          = 2025-11-01T14:00:01.999872
MEAN_MOTION    = 15.51817782
ECCENTRICITY   = .00011785
INCLINATION    = 53.1604
RA_OF_ASC_NODE = 43.0619
ARG_OF_PERICENTER = 71.7130
MEAN_ANOMALY   = 210.5551

EPHEMERIS_TYPE = 0
CLASSIFICATION_TYPE = U
NORAD_CAT_ID   = 65931
ELEMENT_SET_NO = 999
REV_AT_EPOCH   = 481
BSTAR          = -.34335117E-1
MEAN_MOTION_DOT = -.1847196E-1
MEAN_MOTION_DDOT = 0

CCSDS_OMM_VERS = 2.0
CREATION_DATE  = 
ORIGINATOR     = 

OBJECT_NAME    = STARLINK-35436
OBJECT_ID      = 2025-225Y
CENTER_NAME    = EARTH
REF_FRAME      = TEME
TIME_SYSTEM    = UTC
MEAN_ELEMENT_THEORY = SGP/SGP4

EPOCH          = 2025-11-01T14:00:01.999872
MEAN_MOTION    = 15.51822807
ECCENTRICITY   = .00011089
INCLINATION    = 53.1602
RA_OF_ASC_NODE = 43.0587
ARG_OF_PERICENTER = 70.6960
MEAN_ANOMALY   = 213.4856

EPHEMERIS_TYPE = 0
CLASSIFICATION_TYPE = U
NORAD_CAT_ID   = 65932
ELEMENT_SET_NO = 999
REV_AT_EPOCH   = 481
BSTAR          = -.34447207E-1
MEAN_MOTION_DOT = -.1852784E-1
MEAN_MOTION_DDOT = 0

CCSDS_OMM_VERS = 2.0
CREATION_DATE  = 
ORIGINATOR     = 

OBJECT_NAME    = STARLINK-35192
OBJECT_ID      = 2025-225Z
CENTER_NAME    = EARTH
REF_FRAME      = TEME
TIME_SYSTEM    = UTC
MEAN_ELEMENT_THEORY = SGP/SGP4

EPOCH          = 2025-11-01T14:00:01.999872
MEAN_MOTION    = 15.51819634
ECCENTRICITY   = .00010237
INCLINATION    = 53.1603
RA_OF_ASC_NODE = 43.0463
ARG_OF_PERICENTER = 73.0626
MEAN_ANOMALY   = 216.8716

EPHEMERIS_TYPE = 0
CLASSIFICATION_TYPE = U
NORAD_CAT_ID   = 65933
ELEMENT_SET_NO = 999
REV_AT_EPOCH   = 481
BSTAR          = -.34189956E-1
MEAN_MOTION_DOT = -.1840311E-1
MEAN_MOTION_DDOT = 0

CCSDS_OMM_VERS = 2.0
CREATION_DATE  = 
ORIGINATOR     = 

OBJECT_NAME    = STARLINK-33921
OBJECT_ID      = 2025-225AA
CENTER_NAME    = EARTH
REF_FRAME      = TEME
TIME_SYSTEM    = UTC
MEAN_ELEMENT_THEORY = SGP/SGP4

EPOCH          = 2025-11-01T14:00:01.999872
MEAN_MOTION    = 15.51821757
ECCENTRICITY   = .00010908
INCLINATION    = 53.1602
RA_OF_ASC_NODE = 43.0545
ARG_OF_PERICENTER = 79.2199
MEAN_ANOMALY   = 206.8805

EPHEMERIS_TYPE = 0
CLASSIFICATION_TYPE = U
NORAD_CAT_ID   = 65934
ELEMENT_SET_NO = 999
REV_AT_EPOCH   = 480
BSTAR          = -.34289163E-1
MEAN_MOTION_DOT = -.1845196E-1
MEAN_MOTION_DDOT = 0

CCSDS_OMM_VERS = 2.0
CREATION_DATE  = 
ORIGINATOR     = 

OBJECT_NAME    = STARLINK-35155
OBJECT_ID      = 2025-225AB
CENTER_NAME    = EARTH
REF_FRAME      = TEME
TIME_SYSTEM    = UTC
MEAN_ELEMENT_THEORY = SGP/SGP4

EPOCH          = 2025-11-01T14:00:01.999872
MEAN_MOTION    = 15.51820068
ECCENTRICITY   = .00010874
INCLINATION    = 53.1604
RA_OF_ASC_NODE = 43.0506
ARG_OF_PERICENTER = 62.1431
MEAN_ANOMALY   = 225.8727

EPHEMERIS_TYPE = 0
CLASSIFICATION_TYPE = U
NORAD_CAT_ID   = 65935
ELEMENT_SET_NO = 999
REV_AT_EPOCH   = 480
BSTAR          = -.3427708E-1
MEAN_MOTION_DOT = -.1844519E-1
MEAN_MOTION_DDOT = 0

CCSDS_OMM_VERS = 2.0
CREATION_DATE  = 
ORIGINATOR     = 

OBJECT_NAME    = STARLINK-35161
OBJECT_ID      = 2025-225AC
CENTER_NAME    = EARTH
REF_FRAME      = TEME
TIME_SYSTEM    = UTC
MEAN_ELEMENT_THEORY = SGP/SGP4

EPOCH          = 2025-11-01T14:00:01.999872
MEAN_MOTION    = 15.51821919
ECCENTRICITY   = .00010401
INCLINATION    = 53.1601
RA_OF_ASC_NODE = 43.0430
ARG_OF_PERICENTER = 66.5658
MEAN_ANOMALY   = 225.2834

EPHEMERIS_TYPE = 0
CLASSIFICATION_TYPE = U
NORAD_CAT_ID   = 65936
ELEMENT_SET_NO = 999
REV_AT_EPOCH   = 481
BSTAR          = -.34293161E-1
MEAN_MOTION_DOT = -.1845367E-1
MEAN_MOTION_DDOT = 0

CCSDS_OMM_VERS = 2.0
CREATION_DATE  = 
ORIGINATOR     = 

OBJECT_NAME    = STARLINK-35473
OBJECT_ID      = 2025-225AD
CENTER_NAME    = EARTH
REF_FRAME      = TEME
TIME_SYSTEM    = UTC
MEAN_ELEMENT_THEORY = SGP/SGP4

EPOCH          = 2025-11-01T14:00:01.999872
MEAN_MOTION    = 15.51822943
ECCENTRICITY   = .00010076
INCLINATION    = 53.1599
RA_OF_ASC_NODE = 43.0395
ARG_OF_PERICENTER = 74.3425
MEAN_ANOMALY   = 219.4239

EPHEMERIS_TYPE = 0
CLASSIFICATION_TYPE = U
NORAD_CAT_ID   = 65937
ELEMENT_SET_NO = 999
REV_AT_EPOCH   = 481
BSTAR          = -.34283392E-1
MEAN_MOTION_DOT = -.1844945E-1
MEAN_MOTION_DDOT = 0

